{
  "norad_id": 62614,
  "name": "TRANSPORTER-12 OBJECT F",
  "history": [
    {
      "epoch": "2026-03-28T19:31:35.020992Z",
      "apogee_km": 302.74968344988974,
      "perigee_km": 290.32317693796085,
      "latitude_deg": 5.3034126367792724e-06,
      "longitude_deg": 60.3582220883462,
      "height_km": 300.8560275192154,
      "semi_major_axis_km": 6674.673430193925,
      "eccentricity": 0.00093087,
      "inclination_deg": 97.3794,
      "raan_deg": 179.4828,
      "arg_perigee_deg": 259.5849,
      "mean_anomaly_deg": 100.4376,
      "mean_motion_rev_day": 15.92053761
    },
    {
      "epoch": "2026-03-29T04:34:31.237248Z",
      "apogee_km": 300.5521235411534,
      "perigee_km": 288.27863069867817,
      "latitude_deg": -2.9378320637765375e-05,
      "longitude_deg": -75.33643494995458,
      "height_km": 298.5640989818787,
      "semi_major_axis_km": 6672.552377119915,
      "eccentricity": 0.0009197,
      "inclination_deg": 97.379,
      "raan_deg": 179.894,
      "arg_perigee_deg": 261.0815,
      "mean_anomaly_deg": 98.9418,
      "mean_motion_rev_day": 15.92812938
    }
  ]
}